{"type": "FeatureCollection", "features": [ {"type": "Feature", "properties": {"norad_id": 66836, "name": "STARLINK-35838", "group": "last-30-days", "lat": 32.859417133116054, "lon": -144.8646287994199, "alt_km": 318.16367071197146, "timestamp": "2025-12-11T18:59:44.812155+00:00", "meta": {"OBJECT_NAME": "STARLINK-35838", "OBJECT_ID": "2025-280R", "EPOCH": "2025-12-10T18:00:02.000160", "MEAN_MOTION": 15.87519795, "ECCENTRICITY": 0.000371, "INCLINATION": 69.9928, "RA_OF_ASC_NODE": 204.5182, "ARG_OF_PERICENTER": 269.3013, "MEAN_ANOMALY": 302.7614, "EPHEMERIS_TYPE": 0, "CLASSIFICATION_TYPE": "U", "NORAD_CAT_ID": 66836, "ELEMENT_SET_NO": 999, "REV_AT_EPOCH": 258, "BSTAR": -0.0071306, "MEAN_MOTION_DOT": -0.01656757, "MEAN_MOTION_DDOT": 0}, "tle": {"line1": "1 66836U 25280R   25344.75002315 -.01656757  00000+0 -71306-2 0  9994", "line2": "2 66836  69.9928 204.5182 0003710 269.3013 302.7614 15.87519795  2586"}}, "geometry": {"type": "Point", "coordinates": [-144.8646287994199, 32.859417133116054]}}, {"type": "Feature", "properties": {"norad_id": 66837, "name": "STARLINK-35729", "group": "last-30-days", "lat": 34.64730136210334, "lon": -143.89514676013945, "alt_km": 317.99079956666264, "timestamp": "2025-12-11T18:59:44.812167+00:00", "meta": {"OBJECT_NAME": "STARLINK-35729", "OBJECT_ID": "2025-280S", "EPOCH": "2025-12-10T18:00:02.000160", "MEAN_MOTION": 15.87561134, "ECCENTRICITY": 0.000382, "INCLINATION": 69.9927, "RA_OF_ASC_NODE": 204.5159, "ARG_OF_PERICENTER": 266.7119, "MEAN_ANOMALY": 307.1782, "EPHEMERIS_TYPE": 0, "CLASSIFICATION_TYPE": "U", "NORAD_CAT_ID": 66837, "ELEMENT_SET_NO": 999, "REV_AT_EPOCH": 258, "BSTAR": -0.0071396, "MEAN_MOTION_DOT": -0.01661686, "MEAN_MOTION_DDOT": 0}, "tle": {"line1": "1 66837U 25280S   25344.75002315 -.01661686  00000+0 -71396-2 0  9991", "line2": "2 66837  69.9927 204.5159 0003820 266.7119 307.1782 15.87561134  2589"}}, "geometry": {"type": "Point", "coordinates": [-143.89514676013945, 34.64730136210334]}}, {"type": "Feature", "properties": {"norad_id": 66838, "name": "STARLINK-35886", "group": "last-30-days", "lat": 38.02313756235733, "lon": -141.9302275128366, "alt_km": 317.2621151513931, "timestamp": "2025-12-11T18:59:44.812177+00:00", "meta": {"OBJECT_NAME": "STARLINK-35886", "OBJECT_ID": "2025-280T", "EPOCH": "2025-12-10T18:00:02.000160", "MEAN_MOTION": 15.87648363, "ECCENTRICITY": 0.000369, "INCLINATION": 69.9926, "RA_OF_ASC_NODE": 204.5117, "ARG_OF_PERICENTER": 267.7878, "MEAN_ANOMALY": 309.5468, "EPHEMERIS_TYPE": 0, "CLASSIFICATION_TYPE": "U", "NORAD_CAT_ID": 66838, "ELEMENT_SET_NO": 999, "REV_AT_EPOCH": 258, "BSTAR": -0.0071577, "MEAN_MOTION_DOT": -0.01671531, "MEAN_MOTION_DDOT": 0}, "tle": {"line1": "1 66838U 25280T   25344.75002315 -.01671531  00000+0 -71577-2 0  9993", "line2": "2 66838  69.9926 204.5117 0003690 267.7878 309.5468 15.87648363  2588"}}, "geometry": {"type": "Point", "coordinates": [-141.9302275128366, 38.02313756235733]}}, {"type": "Feature", "properties": {"norad_id": 66839, "name": "STARLINK-35717", "group": "last-30-days", "lat": 36.26852023263646, "lon": -142.97538014091958, "alt_km": 317.5322701643918, "timestamp": "2025-12-11T18:59:44.812189+00:00", "meta": {"OBJECT_NAME": "STARLINK-35717", "OBJECT_ID": "2025-280U", "EPOCH": "2025-12-10T18:00:02.000160", "MEAN_MOTION": 15.87600798, "ECCENTRICITY": 0.0003768, "INCLINATION": 69.9927, "RA_OF_ASC_NODE": 204.5137, "ARG_OF_PERICENTER": 269.5917, "MEAN_ANOMALY": 305.9288, "EPHEMERIS_TYPE": 0, "CLASSIFICATION_TYPE": "U", "NORAD_CAT_ID": 66839, "ELEMENT_SET_NO": 999, "REV_AT_EPOCH": 258, "BSTAR": -0.0071206, "MEAN_MOTION_DOT": -0.01660629, "MEAN_MOTION_DDOT": 0}, "tle": {"line1": "1 66839U 25280U   25344.75002315 -.01660629  00000+0 -71206-2 0  9999", "line2": "2 66839  69.9927 204.5137 0003768 269.5917 305.9288 15.87600798  2582"}}, "geometry": {"type": "Point", "coordinates": [-142.97538014091958, 36.26852023263646]}}, {"type": "Feature", "properties": {"norad_id": 66840, "name": "STARLINK-35837", "group": "last-30-days", "lat": 39.73104334030466, "lon": -140.85797847284843, "alt_km": 316.9536664573534, "timestamp": "2025-12-11T18:59:44.812199+00:00", "meta": {"OBJECT_NAME": "STARLINK-35837", "OBJECT_ID": "2025-280V", "EPOCH": "2025-12-10T18:00:02.000160", "MEAN_MOTION": 15.87691104, "ECCENTRICITY": 0.0003714, "INCLINATION": 69.9929, "RA_OF_ASC_NODE": 204.5098, "ARG_OF_PERICENTER": 268.029, "MEAN_ANOMALY": 311.0661, "EPHEMERIS_TYPE": 0, "CLASSIFICATION_TYPE": "U", "NORAD_CAT_ID": 66840, "ELEMENT_SET_NO": 999, "REV_AT_EPOCH": 258, "BSTAR": -0.0071656, "MEAN_MOTION_DOT": -0.01676267, "MEAN_MOTION_DDOT": 0}, "tle": {"line1": "1 66840U 25280V   25344.75002315 -.01676267  00000+0 -71656-2 0  9995", "line2": "2 66840  69.9929 204.5098 0003714 268.0290 311.0661 15.87691104  2585"}}, "geometry": {"type": "Point", "coordinates": [-140.85797847284843, 39.73104334030466]}}, {"type": "Feature", "properties": {"norad_id": 66841, "name": "STARLINK-35715", "group": "last-30-days", "lat": 41.48465802118246, "lon": -139.692919627903, "alt_km": 316.66329321275043, "timestamp": "2025-12-11T18:59:44.812211+00:00", "meta": {"OBJECT_NAME": "STARLINK-35715", "OBJECT_ID": "2025-280W", "EPOCH": "2025-12-10T18:00:02.000160", "MEAN_MOTION": 15.87733027, "ECCENTRICITY": 0.0003766, "INCLINATION": 69.9927, "RA_OF_ASC_NODE": 204.5074, "ARG_OF_PERICENTER": 268.1486, "MEAN_ANOMALY": 312.7726, "EPHEMERIS_TYPE": 0, "CLASSIFICATION_TYPE": "U", "NORAD_CAT_ID": 66841, "ELEMENT_SET_NO": 999, "REV_AT_EPOCH": 258, "BSTAR": -0.0071733, "MEAN_MOTION_DOT": -0.01680956, "MEAN_MOTION_DDOT": 0}, "tle": {"line1": "1 66841U 25280W   25344.75002315 -.01680956  00000+0 -71733-2 0  9992", "line2": "2 66841  69.9927 204.5074 0003766 268.1486 312.7726 15.87733027  2584"}}, "geometry": {"type": "Point", "coordinates": [-139.692919627903, 41.48465802118246]}}, {"type": "Feature", "properties": {"norad_id": 66842, "name": "STARLINK-35769", "group": "last-30-days", "lat": 43.078276223481375, "lon": -138.57029357835845, "alt_km": 316.2848441594888, "timestamp": "2025-12-11T18:59:44.812221+00:00", "meta": {"OBJECT_NAME": "STARLINK-35769", "OBJECT_ID": "2025-280X", "EPOCH": "2025-12-10T18:00:02.000160", "MEAN_MOTION": 15.87776553, "ECCENTRICITY": 0.0003711, "INCLINATION": 69.9928, "RA_OF_ASC_NODE": 204.5056, "ARG_OF_PERICENTER": 269.4344, "MEAN_ANOMALY": 313.1315, "EPHEMERIS_TYPE": 0, "CLASSIFICATION_TYPE": "U", "NORAD_CAT_ID": 66842, "ELEMENT_SET_NO": 999, "REV_AT_EPOCH": 258, "BSTAR": -0.0071714, "MEAN_MOTION_DOT": -0.01683694, "MEAN_MOTION_DDOT": 0}, "tle": {"line1": "1 66842U 25280X   25344.75002315 -.01683694  00000+0 -71714-2 0  9994", "line2": "2 66842  69.9928 204.5056 0003711 269.4344 313.1315 15.87776553  2583"}}, "geometry": {"type": "Point", "coordinates": [-138.57029357835845, 43.078276223481375]}}, {"type": "Feature", "properties": {"norad_id": 66843, "name": "STARLINK-35997", "group": "last-30-days", "lat": 46.43827517690452, "lon": -135.9667302237558, "alt_km": 315.71067907877205, "timestamp": "2025-12-11T18:59:44.812232+00:00", "meta": {"OBJECT_NAME": "STARLINK-35997", "OBJECT_ID": "2025-280Y", "EPOCH": "2025-12-10T18:00:02.000160", "MEAN_MOTION": 15.87863546, "ECCENTRICITY": 0.000373, "INCLINATION": 69.9924, "RA_OF_ASC_NODE": 204.501, "ARG_OF_PERICENTER": 268.9655, "MEAN_ANOMALY": 317.1531, "EPHEMERIS_TYPE": 0, "CLASSIFICATION_TYPE": "U", "NORAD_CAT_ID": 66843, "ELEMENT_SET_NO": 999, "REV_AT_EPOCH": 258, "BSTAR": -0.0071908, "MEAN_MOTION_DOT": -0.0169407, "MEAN_MOTION_DDOT": 0}, "tle": {"line1": "1 66843U 25280Y   25344.75002315 -.01694070  00000+0 -71908-2 0  9990", "line2": "2 66843  69.9924 204.5010 0003730 268.9655 317.1531 15.87863546  2583"}}, "geometry": {"type": "Point", "coordinates": [-135.9667302237558, 46.43827517690452]}}, {"type": "Feature", "properties": {"norad_id": 66844, "name": "STARLINK-36073", "group": "last-30-days", "lat": 44.91221395774129, "lon": -137.1928134234261, "alt_km": 315.9889233106296, "timestamp": "2025-12-11T18:59:44.812245+00:00", "meta": {"OBJECT_NAME": "STARLINK-36073", "OBJECT_ID": "2025-280Z", "EPOCH": "2025-12-10T18:00:02.000160", "MEAN_MOTION": 15.87818843, "ECCENTRICITY": 0.0003729, "INCLINATION": 69.9926, "RA_OF_ASC_NODE": 204.503, "ARG_OF_PERICENTER": 269.5704, "MEAN_ANOMALY": 314.9537, "EPHEMERIS_TYPE": 0, "CLASSIFICATION_TYPE": "U", "NORAD_CAT_ID": 66844, "ELEMENT_SET_NO": 999, "REV_AT_EPOCH": 258, "BSTAR": -0.0071928, "MEAN_MOTION_DOT": -0.01691191, "MEAN_MOTION_DDOT": 0}, "tle": {"line1": "1 66844U 25280Z   25344.75002315 -.01691191  00000+0 -71928-2 0  9994", "line2": "2 66844  69.9926 204.5030 0003729 269.5704 314.9537 15.87818843  2589"}}, "geometry": {"type": "Point", "coordinates": [-137.1928134234261, 44.91221395774129]}}, {"type": "Feature", "properties": {"norad_id": 66845, "name": "STARLINK-36068", "group": "last-30-days", "lat": 51.2002185187113, "lon": -131.552843501305, "alt_km": 314.9012693769073, "timestamp": "2025-12-11T18:59:44.812255+00:00", "meta": {"OBJECT_NAME": "STARLINK-36068", "OBJECT_ID": "2025-280AA", "EPOCH": "2025-12-10T18:00:02.000160", "MEAN_MOTION": 15.87995314, "ECCENTRICITY": 0.00038, "INCLINATION": 69.9924, "RA_OF_ASC_NODE": 204.4949, "ARG_OF_PERICENTER": 268.3551, "MEAN_ANOMALY": 322.8945, "EPHEMERIS_TYPE": 0, "CLASSIFICATION_TYPE": "U", "NORAD_CAT_ID": 66845, "ELEMENT_SET_NO": 999, "REV_AT_EPOCH": 258, "BSTAR": -0.0072002, "MEAN_MOTION_DOT": -0.01705839, "MEAN_MOTION_DDOT": 0}, "tle": {"line1": "1 66845U 25280AA  25344.75002315 -.01705839  00000+0 -72002-2 0  9994", "line2": "2 66845  69.9924 204.4949 0003800 268.3551 322.8945 15.87995314  2583"}}, "geometry": {"type": "Point", "coordinates": [-131.552843501305, 51.2002185187113]}}]}